0 GLOBALSTAR M067
1 32263U 07048A   23248.15407935 -.00000026  00000-0  52855-3 0  9995
2 32263  51.9723 140.8356 0001482  40.6789 125.1113 12.40631146728921
0 GLOBALSTAR M070
1 32264U 07048B   23248.17220227 -.00000073  00000-0  17024-3 0  9996
2 32264  51.9761 311.6892 0000934 114.6764 271.7865 12.62277472732438
0 GLOBALSTAR M066
1 32265U 07048C   23247.81073677 -.00000054  00000-0  28020-3 0  9999
2 32265  51.9668 174.8699 0000833 328.1801  49.4524 12.62263231734613
0 GLOBALSTAR M068
1 32266U 07048D   23248.07624861 -.00000059  00000-0  25028-3 0  9996
2 32266  51.9880 126.9573 0001165 104.2730  47.9854 12.62765730735589
0 GLOBALSTAR M079
1 37188U 10054A   23247.48205292 -.00000083  00000-0  11770-3 0  9998
2 37188  52.0061 323.6850 0000366 100.6913 272.2941 12.62267386594159
0 GLOBALSTAR M074
1 37189U 10054B   23248.14158495 -.00000078  00000-0  14179-3 0  9995
2 37189  52.0032 321.1008 0000584 106.1801 265.3184 12.62269444594918
0 GLOBALSTAR M076
1 37190U 10054C   23248.16888765 -.00000080  00000-0  13528-3 0  9999
2 37190  52.0044 321.1276 0000715  53.0462 323.7077 12.62260624594921
0 GLOBALSTAR M077
1 37191U 10054D   23247.55515785 -.00000097  00000-0  35379-4 0  9998
2 37191  52.0061 279.6665 0000441 105.4218  59.6538 12.62260542594855
